{
  "type": "FeatureCollection",
  "features": [
    {
      "type": "Feature",
      "properties": {
        "norad_id": 41890,
        "name": "CYGFM07",
        "group": "weather",
        "lat": 0.8211053672649756,
        "lon": -137.8775881708578,
        "alt_km": 409.71321855321366,
        "timestamp": "2025-12-09T09:46:47.290591+00:00",
        "meta_object_name": "CYGFM07",
        "meta_object_id": "2016-078G",
        "meta_epoch": "2025-12-09T04:22:31.842336",
        "meta_mean_motion": 15.49776848,
        "meta_eccentricity": 0.0009532,
        "meta_inclination": 34.9479,
        "meta_ra_of_asc_node": 44.7742,
        "meta_arg_of_pericenter": 184.2651,
        "meta_mean_anomaly": 175.7991,
        "meta_ephemeris_type": 0,
        "meta_classification_type": "U",
        "meta_norad_cat_id": 41890,
        "meta_element_set_no": 999,
        "meta_rev_at_epoch": 49940,
        "meta_bstar": 0.00045753,
        "meta_mean_motion_dot": 0.00026327,
        "meta_mean_motion_ddot": 0,
        "tle_line1": "1 41890U 16078G   25343.18231299  .00026327  00000+0  45753-3 0  9992",
        "tle_line2": "2 41890  34.9479  44.7742 0009532 184.2651 175.7991 15.49776848499408"
      },
      "geometry": {
        "type": "Point",
        "coordinates": [
          -137.8775881708578,
          0.8211053672649756
        ]
      }
    },
    {
      "type": "Feature",
      "properties": {
        "norad_id": 41891,
        "name": "CYGFM03",
        "group": "weather",
        "lat": 8.145579159438325,
        "lon": 57.04370241700752,
        "alt_km": 420.9180156610073,
        "timestamp": "2025-12-09T09:46:47.290603+00:00",
        "meta_object_name": "CYGFM03",
        "meta_object_id": "2016-078H",
        "meta_epoch": "2025-12-08T15:09:54.108000",
        "meta_mean_motion": 15.49651894,
        "meta_eccentricity": 0.00087312,
        "meta_inclination": 34.9436,
        "meta_ra_of_asc_node": 50.2977,
        "meta_arg_of_pericenter": 166.471,
        "meta_mean_anomaly": 193.6247,
        "meta_ephemeris_type": 0,
        "meta_classification_type": "U",
        "meta_norad_cat_id": 41891,
        "meta_element_set_no": 999,
        "meta_rev_at_epoch": 49929,
        "meta_bstar": 0.00050514464,
        "meta_mean_motion_dot": 0.00028945,
        "meta_mean_motion_ddot": 0,
        "tle_line1": "1 41891U 16078H   25342.63187625  .00028945  00000+0  50514-3 0  9994",
        "tle_line2": "2 41891  34.9436  50.2977 0008731 166.4710 193.6247 15.49651894499295"
      },
      "geometry": {
        "type": "Point",
        "coordinates": [
          57.04370241700752,
          8.145579159438325
        ]
      }
    },
    {
      "type": "Feature",
      "properties": {
        "norad_id": 43010,
        "name": "FENGYUN 3D",
        "group": "weather",
        "lat": -80.33750434339099,
        "lon": 61.27943253584191,
        "alt_km": 833.6045730590049,
        "timestamp": "2025-12-09T09:46:47.290613+00:00",
        "meta_object_name": "FENGYUN 3D",
        "meta_object_id": "2017-072A",
        "meta_epoch": "2025-12-09T05:08:43.973376",
        "meta_mean_motion": 14.19681896,
        "meta_eccentricity": 7.34e-05,
        "meta_inclination": 98.9891,
        "meta_ra_of_asc_node": 309.4715,
        "meta_arg_of_pericenter": 192.5494,
        "meta_mean_anomaly": 167.5663,
        "meta_ephemeris_type": 0,
        "meta_classification_type": "U",
        "meta_norad_cat_id": 43010,
        "meta_element_set_no": 999,
        "meta_rev_at_epoch": 41803,
        "meta_bstar": 6.4598e-05,
        "meta_mean_motion_dot": 9.1e-07,
        "meta_mean_motion_ddot": 0,
        "tle_line1": "1 43010U 17072A   25343.21439784  .00000091  00000+0  64598-4 0  9995",
        "tle_line2": "2 43010  98.9891 309.4715 0000734 192.5494 167.5663 14.19681896418034"
      },
      "geometry": {
        "type": "Point",
        "coordinates": [
          61.27943253584191,
          -80.33750434339099
        ]
      }
    },
    {
      "type": "Feature",
      "properties": {
        "norad_id": 43013,
        "name": "NOAA 20 (JPSS-1)",
        "group": "weather",
        "lat": 59.50279839883786,
        "lon": -95.4347589859932,
        "alt_km": 819.8412657912677,
        "timestamp": "2025-12-09T09:46:47.290625+00:00",
        "meta_object_name": "NOAA 20 (JPSS-1)",
        "meta_object_id": "2017-073A",
        "meta_epoch": "2025-12-09T02:43:42.331296",
        "meta_mean_motion": 14.1952405,
        "meta_eccentricity": 0.0002141,
        "meta_inclination": 98.7594,
        "meta_ra_of_asc_node": 279.4502,
        "meta_arg_of_pericenter": 92.6287,
        "meta_mean_anomaly": 267.5134,
        "meta_ephemeris_type": 0,
        "meta_classification_type": "U",
        "meta_norad_cat_id": 43013,
        "meta_element_set_no": 999,
        "meta_rev_at_epoch": 41750,
        "meta_bstar": 9.101e-05,
        "meta_mean_motion_dot": 1.48e-06,
        "meta_mean_motion_ddot": 0,
        "tle_line1": "1 43013U 17073A   25343.11368439  .00000148  00000+0  91010-4 0  9998",
        "tle_line2": "2 43013  98.7594 279.4502 0002141  92.6287 267.5134 14.19524050417502"
      },
      "geometry": {
        "type": "Point",
        "coordinates": [
          -95.4347589859932,
          59.50279839883786
        ]
      }
    },
    {
      "type": "Feature",
      "properties": {
        "norad_id": 43226,
        "name": "GOES 17",
        "group": "weather",
        "lat": 0.3364799706574604,
        "lon": 135.57013892791815,
        "alt_km": 35797.02543912591,
        "timestamp": "2025-12-09T09:46:47.290637+00:00",
        "meta_object_name": "GOES 17",
        "meta_object_id": "2018-022A",
        "meta_epoch": "2025-12-09T04:04:38.821728",
        "meta_mean_motion": 1.00271672,
        "meta_eccentricity": 0.0003411,
        "meta_inclination": 0.4508,
        "meta_ra_of_asc_node": 89.1675,
        "meta_arg_of_pericenter": 185.8102,
        "meta_mean_anomaly": 134.8525,
        "meta_ephemeris_type": 0,
        "meta_classification_type": "U",
        "meta_norad_cat_id": 43226,
        "meta_element_set_no": 999,
        "meta_rev_at_epoch": 2851,
        "meta_bstar": 0,
        "meta_mean_motion_dot": -1.8e-06,
        "meta_mean_motion_ddot": 0,
        "tle_line1": "1 43226U 18022A   25343.16989377 -.00000180  00000+0  00000+0 0  9995",
        "tle_line2": "2 43226   0.4508  89.1675 0003411 185.8102 134.8525  1.00271672 28516"
      },
      "geometry": {
        "type": "Point",
        "coordinates": [
          135.57013892791815,
          0.3364799706574604
        ]
      }
    },
    {
      "type": "Feature",
      "properties": {
        "norad_id": 43491,
        "name": "FENGYUN 2H",
        "group": "weather",
        "lat": -1.7519217500572413,
        "lon": -55.54158213526577,
        "alt_km": 35780.04457606449,
        "timestamp": "2025-12-09T09:46:47.290665+00:00",
        "meta_object_name": "FENGYUN 2H",
        "meta_object_id": "2018-050A",
        "meta_epoch": "2025-12-09T01:58:00.442848",
        "meta_mean_motion": 1.00271088,
        "meta_eccentricity": 0.0002944,
        "meta_inclination": 2.5409,
        "meta_ra_of_asc_node": 81.3558,
        "meta_arg_of_pericenter": 164.2902,
        "meta_mean_anomaly": 301.2959,
        "meta_ephemeris_type": 0,
        "meta_classification_type": "U",
        "meta_norad_cat_id": 43491,
        "meta_element_set_no": 999,
        "meta_rev_at_epoch": 2753,
        "meta_bstar": 0,
        "meta_mean_motion_dot": -1.28e-06,
        "meta_mean_motion_ddot": 0,
        "tle_line1": "1 43491U 18050A   25343.08194957 -.00000128  00000+0  00000+0 0  9995",
        "tle_line2": "2 43491   2.5409  81.3558 0002944 164.2902 301.2959  1.00271088 27539"
      },
      "geometry": {
        "type": "Point",
        "coordinates": [
          -55.54158213526577,
          -1.7519217500572413
        ]
      }
    },
    {
      "type": "Feature",
      "properties": {
        "norad_id": 43689,
        "name": "METOP-C",
        "group": "weather",
        "lat": 1.6604905990714545,
        "lon": -138.51777219649395,
        "alt_km": 823.6435967658308,
        "timestamp": "2025-12-09T09:46:47.290678+00:00",
        "meta_object_name": "METOP-C",
        "meta_object_id": "2018-087A",
        "meta_epoch": "2025-12-09T03:52:34.896864",
        "meta_mean_motion": 14.21509628,
        "meta_eccentricity": 0.0001484,
        "meta_inclination": 98.6934,
        "meta_ra_of_asc_node": 40.9859,
        "meta_arg_of_pericenter": 48.3671,
        "meta_mean_anomaly": 311.7633,
        "meta_ephemeris_type": 0,
        "meta_classification_type": "U",
        "meta_norad_cat_id": 43689,
        "meta_element_set_no": 999,
        "meta_rev_at_epoch": 36783,
        "meta_bstar": 0.00011876,
        "meta_mean_motion_dot": 2.16e-06,
        "meta_mean_motion_ddot": 0,
        "tle_line1": "1 43689U 18087A   25343.16151501  .00000216  00000+0  11876-3 0  9995",
        "tle_line2": "2 43689  98.6934  40.9859 0001484  48.3671 311.7633 14.21509628367831"
      },
      "geometry": {
        "type": "Point",
        "coordinates": [
          -138.51777219649395,
          1.6604905990714545
        ]
      }
    }
  ]
}